EXO-0                   
1 59175U 23174DK  26068.71046781  .00011582  00000+0  36716-3 0  9992
2 59175  97.3864 148.9039 0009878 157.1125 203.0559 15.32821991129797
STARLINK-35350          
1 66187U 25243L   26068.71342950  .00027287  00000+0  93008-3 0  9995
2 66187  53.1578 245.4147 0000871  89.8778 270.2322 15.30198438 20652
